OBJECT_NAME,OBJECT_ID,EPOCH,MEAN_MOTION,ECCENTRICITY,INCLINATION,RA_OF_ASC_NODE,ARG_OF_PERICENTER,MEAN_ANOMALY,EPHEMERIS_TYPE,CLASSIFICATION_TYPE,NORAD_CAT_ID,ELEMENT_SET_NO,REV_AT_EPOCH,BSTAR,MEAN_MOTION_DOT,MEAN_MOTION_DDOT
INTELSAT 902 (IS-902),2001-039A,2026-06-06T13:13:40.510848,1.00270875,.00042991,6.0917,71.9112,0.7285,330.6336,0,U,26900,999,9058,0,-.27E-5,0
INTELSAT 904 (IS-904),2002-007A,2026-06-05T06:01:34.581216,1.00270624,.000723,6.8900,69.3272,359.5843,243.6787,0,U,27380,999,5164,0,-.215E-5,0
DIRECTV 5 (TEMPO 1),2002-023A,2026-06-06T09:36:12.002688,1.00271776,.00034601,4.8496,75.4441,8.1688,205.1547,0,U,27426,999,8801,0,-.44E-6,0
INTELSAT 905 (IS-905),2002-027A,2026-06-06T10:20:38.821632,1.00272787,.00041503,6.7259,69.9292,13.8906,188.9813,0,U,27438,999,5125,0,.106E-5,0
GALAXY 3C (G-3C),2002-030A,2026-06-06T09:35:56.027328,1.00271669,.00019078,3.7024,78.1196,30.9797,194.8532,0,U,27445,999,4638,0,-.139E-5,0
INTELSAT 906 (IS-906),2002-041A,2026-06-06T15:36:29.577312,1.00270971,.00047606,5.7771,73.0492,357.5118,122.7629,0,U,27513,999,8692,0,.26E-6,0
GALAXY 13 (HORIZONS-1),2003-044A,2026-06-06T12:45:35.703072,1.00272433,.00020768,1.3927,83.9864,345.5979,226.7431,0,U,27954,999,4646,0,.146E-5,0
INTELSAT 10-02,2004-022A,2026-06-06T08:20:04.793280,1.00269589,.00003119,0.0105,327.8310,185.7121,225.2368,0,U,28358,999,8044,0,.2E-7,0
DIRECTV 8,2005-019A,2026-06-06T12:54:19.865088,1.00269731,.00030212,0.0168,348.8637,91.7517,248.8706,0,U,28659,999,7696,0,0,0
GALAXY 28 (G-28),2005-022A,2026-06-06T11:37:50.296224,1.00270809,.00027677,3.2722,79.0600,355.4718,327.7180,0,U,28702,999,5186,0,-.187E-5,0
GALAXY 16 (G-16),2006-023A,2026-06-06T13:00:04.315104,1.00272224,.00027955,0.0071,216.0864,217.5945,277.2985,0,U,29236,999,7286,0,-.114E-5,0
DIRECTV 9S,2006-043A,2026-06-06T12:59:26.875392,1.00271816,.00051374,2.3926,81.0308,5.2306,262.3756,0,U,29494,999,5127,0,-.1E-5,0
GALAXY 17 (G-17),2007-016B,2026-06-06T13:04:03.931680,1.00272457,.00049235,2.9445,80.0350,13.3832,272.5693,0,U,31307,999,6969,0,-.193E-5,0
INTELSAT 11 (IS-11),2007-044B,2026-06-06T15:40:02.354592,0.99053769,.00017727,3.5373,78.7969,78.9029,144.4742,0,U,32253,999,6834,0,-.19E-5,0
HORIZONS-2,2007-063B,2026-06-06T13:07:18.621120,1.00272836,.00041197,2.5740,80.7565,353.6876,303.5764,0,U,32388,999,6770,0,-.24E-5,0
DIRECTV 11,2008-013A,2026-06-06T09:21:33.935904,1.00269829,.00003371,0.0363,173.8473,246.0332,236.1421,0,U,32729,999,4548,0,-.112E-5,0
GALAXY 18 (G-18),2008-024A,2026-06-06T12:53:12.473088,1.00271950,.00032593,0.0196,60.9023,25.8209,238.5256,0,U,32951,999,4574,0,.38E-6,0
INTELSAT 25 (IS-25),2008-034A,2026-06-06T14:40:28.484256,0.99020141,.00018956,2.6803,80.4544,29.3933,174.1055,0,U,33153,999,6558,0,-.208E-5,0
GALAXY 19 (G-19),2008-045A,2026-06-06T11:17:59.697312,1.00282095,.00031833,0.0137,58.2191,24.6727,244.5072,0,U,33376,999,6479,0,-.127E-5,0
FM-5,2009-034A,2026-06-06T08:33:38.809152,1.00271124,.00004008,0.0143,293.9617,358.4484,4.6218,0,U,35493,999,4653,0,-.187E-5,0
INTELSAT 14 (IS-14),2009-064A,2026-06-06T11:32:50.774208,1.00271915,.00028694,0.0152,322.9163,127.2868,292.9215,0,U,36097,999,6049,0,-.26E-5,0
INTELSAT 15 (IS-15),2009-067A,2026-06-06T15:24:59.433120,1.00272067,.00023802,0.0136,326.2538,111.7481,133.4576,0,U,36106,999,4112,0,-.172E-5,0
DIRECTV 12,2009-075A,2026-06-06T12:47:57.922656,1.00271277,.00003931,0.0378,150.0329,275.8530,278.3399,0,U,36131,999,4644,0,-.9E-6,0
INTELSAT 16 (IS-16),2010-006A,2026-06-06T13:06:33.693120,1.00271354,.0002232,0.0198,42.4438,46.4277,286.5508,0,U,36397,999,5954,0,-.231E-5,0
XM-5,2010-053A,2026-06-06T11:12:52.687872,1.00271222,.00028852,0.0644,273.1607,279.9534,114.8036,0,U,37185,999,5737,0,-.1E-6,0
INTELSAT 17 (IS-17),2010-065B,2026-06-06T13:47:10.924800,1.00272160,.00024299,0.0046,310.5232,130.7411,86.5128,0,U,37238,999,5314,0,.12E-6,0
INTELSAT 28 (IS-28),2011-016A,2026-06-06T09:54:01.792800,1.00269481,.00039963,1.7776,82.7562,352.8535,296.0409,0,U,37392,999,5317,0,-.212E-5,0
INTELSAT 18 (IS-18),2011-056A,2026-06-06T10:54:14.511168,1.00271990,.00021972,0.0174,310.2124,138.4389,149.7837,0,U,37834,999,5370,0,.66E-6,0
INTELSAT 22 (IS-22),2012-011A,2026-06-06T15:34:51.819168,1.00273266,.00016008,0.0171,54.2558,10.4956,136.1217,0,U,38098,999,708,0,-.45E-6,0
INTELSAT 19 (IS-19),2012-030A,2026-06-06T14:15:43.798752,1.00271511,.00031404,0.0158,7.0347,76.0423,191.8698,0,U,38356,999,5034,0,-.43E-6,0
INTELSAT 20 (IS-20),2012-043A,2026-06-06T13:47:55.852800,1.00270711,.00015252,0.0017,53.8154,123.1239,353.5243,0,U,38740,999,5064,0,-.11E-6,0
