INTELSAT 902 (IS-902)   
1 26900U 01039A   26157.55116332 -.00000270  00000+0  00000+0 0  9995
2 26900   6.0917  71.9112 0004299   0.7285 330.6336  1.00270875 90585
INTELSAT 904 (IS-904)   
1 27380U 02007A   26156.25109469 -.00000215  00000+0  00000+0 0  9992
2 27380   6.8900  69.3272 0007230 359.5843 243.6787  1.00270624 51648
DIRECTV 5 (TEMPO 1)     
1 27426U 02023A   26157.40013892 -.00000044  00000+0  00000+0 0  9993
2 27426   4.8496  75.4441 0003460   8.1688 205.1547  1.00271776 88015
INTELSAT 905 (IS-905)   
1 27438U 02027A   26157.43100488  .00000106  00000+0  00000+0 0  9999
2 27438   6.7259  69.9292 0004150  13.8906 188.9813  1.00272787 51254
GALAXY 3C (G-3C)        
1 27445U 02030A   26157.39995402 -.00000139  00000+0  00000+0 0  9991
2 27445   3.7024  78.1196 0001907  30.9797 194.8532  1.00271669 46389
INTELSAT 906 (IS-906)   
1 27513U 02041A   26157.65034233  .00000026  00000+0  00000+0 0  9998
2 27513   5.7771  73.0492 0004760 357.5118 122.7629  1.00270971 86920
GALAXY 13 (HORIZONS-1)  
1 27954U 03044A   26157.53166323  .00000146  00000+0  00000+0 0  9997
2 27954   1.3927  83.9864 0002076 345.5979 226.7431  1.00272433 46463
INTELSAT 10-02          
1 28358U 04022A   26157.34727770  .00000002  00000+0  00000+0 0  9992
2 28358   0.0105 327.8310 0000311 185.7121 225.2368  1.00269589 80442
DIRECTV 8               
1 28659U 05019A   26157.53772992  .00000000  00000+0  00000+0 0  9998
2 28659   0.0168 348.8637 0003021  91.7517 248.8706  1.00269731 76964
GALAXY 28 (G-28)        
1 28702U 05022A   26157.48460991 -.00000187  00000+0  00000+0 0  9995
2 28702   3.2722  79.0600 0002767 355.4718 327.7180  1.00270809 51869
GALAXY 16 (G-16)        
1 29236U 06023A   26157.54171661 -.00000114  00000+0  00000+0 0  9990
2 29236   0.0071 216.0864 0002795 217.5945 277.2985  1.00272224 72868
DIRECTV 9S              
1 29494U 06043A   26157.54128328 -.00000100  00000+0  00000+0 0  9995
2 29494   2.3926  81.0308 0005137   5.2306 262.3756  1.00271816 51276
GALAXY 17 (G-17)        
1 31307U 07016B   26157.54448995 -.00000193  00000+0  00000+0 0  9999
2 31307   2.9445  80.0350 0004923  13.3832 272.5693  1.00272457 69696
INTELSAT 11 (IS-11)     
1 32253U 07044B   26157.65280503 -.00000190  00000+0  00000+0 0  9999
2 32253   3.5373  78.7969 0001772  78.9029 144.4742  0.99053769 68341
HORIZONS-2              
1 32388U 07063B   26157.54674330 -.00000240  00000+0  00000+0 0  9998
2 32388   2.5740  80.7565 0004119 353.6876 303.5764  1.00272836 67705
DIRECTV 11              
1 32729U 08013A   26157.38997611 -.00000112  00000+0  00000+0 0  9993
2 32729   0.0363 173.8473 0000337 246.0332 236.1421  1.00269829 45480
GALAXY 18 (G-18)        
1 32951U 08024A   26157.53694992  .00000038  00000+0  00000+0 0  9991
2 32951   0.0196  60.9023 0003259  25.8209 238.5256  1.00271950 45749
INTELSAT 25 (IS-25)     
1 33153U 08034A   26157.61144079 -.00000208  00000+0  00000+0 0  9992
2 33153   2.6803  80.4544 0001895  29.3933 174.1055  0.99020141 65586
GALAXY 19 (G-19)        
1 33376U 08045A   26157.47082983 -.00000127  00000+0  00000+0 0  9990
2 33376   0.0137  58.2191 0003183  24.6727 244.5072  1.00282095 64791
FM-5                    
1 35493U 09034A   26157.35669918 -.00000187  00000+0  00000+0 0  9993
2 35493   0.0143 293.9617 0000400 358.4484   4.6218  1.00271124 46538
INTELSAT 14 (IS-14)     
1 36097U 09064A   26157.48114322 -.00000260  00000+0  00000+0 0  9997
2 36097   0.0152 322.9163 0002869 127.2868 292.9215  1.00271915 60495
INTELSAT 15 (IS-15)     
1 36106U 09067A   26157.64235455 -.00000172  00000+0  00000+0 0  9992
2 36106   0.0136 326.2538 0002380 111.7481 133.4576  1.00272067 41125
DIRECTV 12              
1 36131U 09075A   26157.53330929 -.00000090  00000+0  00000+0 0  9998
2 36131   0.0378 150.0329 0000393 275.8530 278.3399  1.00271277 46445
INTELSAT 16 (IS-16)     
1 36397U 10006A   26157.54622330 -.00000231  00000+0  00000+0 0  9996
2 36397   0.0198  42.4438 0002232  46.4277 286.5508  1.00271354 59542
XM-5                    
1 37185U 10053A   26157.46727648 -.00000010  00000+0  00000+0 0  9998
2 37185   0.0644 273.1607 0002885 279.9534 114.8036  1.00271222 57370
INTELSAT 17 (IS-17)     
1 37238U 10065B   26157.57443200  .00000012  00000+0  00000+0 0  9992
2 37238   0.0046 310.5232 0002429 130.7411  86.5128  1.00272160 53147
INTELSAT 28 (IS-28)     
1 37392U 11016A   26157.41252075 -.00000212  00000+0  00000+0 0  9994
2 37392   1.7776  82.7562 0003996 352.8535 296.0409  1.00269481 53179
INTELSAT 18 (IS-18)     
1 37834U 11056A   26157.45433462  .00000066  00000+0  00000+0 0  9990
2 37834   0.0174 310.2124 0002197 138.4389 149.7837  1.00271990 53700
INTELSAT 22 (IS-22)     
1 38098U 12011A   26157.64921087 -.00000045  00000+0  00000+0 0  9999
2 38098   0.0171  54.2558 0001600  10.4956 136.1217  1.00273266  7083
INTELSAT 19 (IS-19)     
1 38356U 12030A   26157.59425693 -.00000043  00000+0  00000+0 0  9991
2 38356   0.0158   7.0347 0003140  76.0423 191.8698  1.00271511 50344
INTELSAT 20 (IS-20)     
1 38740U 12043A   26157.57495200 -.00000011  00000+0  00000+0 0  9996
2 38740   0.0017  53.8154 0001525 123.1239 353.5243  1.00270711 50641
